id,contact_id,street_1,street_2,city,state,postal_code
1,100,8 Sundown Trail,,Newark,Delaware,19725
2,101,29260 Pennsylvania Alley,,Sioux City,Iowa,51110
3,102,52957 Toban Street,7,Lexington,Kentucky,40510
4,103,18292 Chinook Plaza,59808,Clearwater,Florida,34615
5,104,3 Brickson Park Park,,Spokane,Washington,99215
6,105,0277 8th Road,,New Castle,Pennsylvania,16107
7,106,39 Oriole Alley,,Orlando,Florida,32813
8,107,09213 Sloan Pass,,Dayton,Ohio,45403
9,108,96270 Brown Road,,Canton,Ohio,44720
10,109,1951 Magdeline Way,,Indianapolis,Indiana,46216
11,110,887 Mesta Pass,,Topeka,Kansas,66699
12,111,70861 Lien Lane,,Sacramento,California,94291
13,112,885 Thackeray Point,,Sioux City,Iowa,51105
14,113,46289 Logan Point,,Houston,Texas,77240
15,114,33 Homewood Parkway,,Hamilton,Ohio,45020
16,115,9 Steensland Plaza,,Huntington Beach,California,92648
17,116,63509 Claremont Circle,,Fort Myers,Florida,33913
18,117,5021 Southridge Junction,,Sioux Falls,South Dakota,57105
19,118,8903 Porter Pass,,Denver,Colorado,80249
20,119,26036 Schurz Plaza,,New York City,New York,10004
21,120,3998 Duke Place,502,Norwalk,Connecticut,06859
22,121,829 Summerview Trail,,Miami,Florida,33196
23,122,500 Vernon Avenue,98,Kansas City,Missouri,64144
24,123,47126 3rd Lane,,Huntington,West Virginia,25770
25,124,127 Melby Trail,,Joliet,Illinois,60435
26,125,5 Debs Park,3730,Pueblo,Colorado,81005
27,126,1 Caliangt Plaza,,Boca Raton,Florida,33499
28,127,68886 Coolidge Circle,,Salt Lake City,Utah,84199
29,128,415 Shoshone Trail,,Albuquerque,New Mexico,87121
30,129,60261 Monument Center,,Wichita,Kansas,67215
31,130,38995 Lighthouse Bay Hill,,Saint Louis,Missouri,63126
32,131,076 Towne Plaza,98072,North Hollywood,California,91616
33,132,18368 Reinke Drive,,Harrisburg,Pennsylvania,17105
34,133,61208 Warbler Parkway,,Tacoma,Washington,98405
35,134,5761 Hansons Place,,Spring,Texas,77386
36,135,1003 Talisman Park,,Albuquerque,New Mexico,87140
37,136,00 Superior Drive,,Johnson City,Tennessee,37605
38,137,572 Superior Place,,Denver,Colorado,80291
39,138,9 Darwin Trail,,Cleveland,Ohio,44191
40,139,621 Milwaukee Hill,,Aurora,Colorado,80044
41,140,6 Mariners Cove Place,,Springfield,Illinois,62718
42,141,5 Oneill Trail,,Portland,Oregon,97201
43,142,378 Twin Pines Plaza,,Kansas City,Missouri,64114
44,143,99 Superior Court,,Lincoln,Nebraska,68583
45,144,468 Fisk Avenue,,Jacksonville,Florida,32225
46,145,23 Golf View Alley,,Fort Wayne,Indiana,46867
47,146,9 Fieldstone Lane,,Saint Louis,Missouri,63180
48,147,1304 Luster Point,15,Portland,Oregon,97206
49,148,7 Anhalt Terrace,,Denver,Colorado,80223
50,149,2392 Old Gate Place,,Sacramento,California,94230
51,150,12384 Paget Terrace,,Lancaster,Pennsylvania,17622
52,151,395 Algoma Terrace,,Philadelphia,Pennsylvania,19178
53,152,7 Bluejay Crossing,,Laurel,Maryland,20709
54,153,87970 Waxwing Avenue,,Las Vegas,Nevada,89193
55,154,1410 Maple Wood Way,17,El Paso,Texas,79968
56,155,38 Farmco Circle,,Hot Springs National Park,Arkansas,71914
57,156,50 East Alley,,Memphis,Tennessee,38109
58,157,9 Coolidge Hill,,Topeka,Kansas,66611
59,158,90 Holy Cross Pass,,Monticello,Minnesota,55590
60,159,1 Barby Drive,,North Las Vegas,Nevada,89036
61,160,89 Lotheville Way,,Houston,Texas,77234
62,161,2822 Johnson Pass,,Los Angeles,California,90030
63,162,3890 Tomscot Crossing,031,New York City,New York,10090
64,163,6 Fieldstone Alley,,Jamaica,New York,11470
65,164,904 Mandrake Terrace,,New Castle,Pennsylvania,16107
66,165,51 Florence Alley,,Portland,Oregon,97211
67,166,9637 Tennyson Road,,Denver,Colorado,80270
68,167,948 Amoth Center,,San Diego,California,92186
69,168,21747 Clemons Point,,Fort Lauderdale,Florida,33325
70,169,621 Sunnyside Lane,,Stamford,Connecticut,06912
71,170,27336 Morningstar Center,,Hampton,Virginia,23663
72,171,52 Gina Junction,,Chesapeake,Virginia,23324
73,172,56817 Hovde Road,52,Brockton,Massachusetts,02305
74,173,6 Buena Vista Park,9,Greenville,South Carolina,29615
75,174,64 Cottonwood Alley,,Boston,Massachusetts,02298
76,175,3644 Ridge Oak Circle,,Austin,Texas,78737
77,176,249 Eastlawn Hill,,Miami,Florida,33233
78,177,41097 Ryan Hill,,Portsmouth,New Hampshire,00214
79,178,35 Shoshone Place,,Fort Smith,Arkansas,72905
80,179,344 Northport Circle,,Washington,District of Columbia,20442
81,180,93 Village Lane,,Houston,Texas,77080
82,181,0075 Northwestern Pass,,Bozeman,Montana,59771
83,182,3193 Ramsey Drive,,Columbia,South Carolina,29240
84,183,09 Kingsford Point,,Des Moines,Iowa,50330
85,184,8815 Scott Way,,Buffalo,New York,14276
86,185,175 Utah Circle,,Boise,Idaho,83705
87,186,3397 Boyd Terrace,51469,Newark,New Jersey,07112
88,187,6576 Lien Court,,Washington,District of Columbia,20370
89,188,231 Di Loreto Plaza,,Cincinnati,Ohio,45271
90,189,468 Nevada Court,25,Peoria,Illinois,61614
91,190,885 Arizona Alley,,Newton,Massachusetts,02162
92,191,1064 Pawling Trail,,Saint Joseph,Missouri,64504
93,192,897 Lakewood Gardens Terrace,,Columbus,Ohio,43220
94,193,348 Truax Center,,Gatesville,Texas,76598
95,194,0 Graceland Drive,,Winston Salem,North Carolina,27105
96,195,5 Hoepker Alley,783,Worcester,Massachusetts,01654
97,196,21 Alpine Center,,El Paso,Texas,88569
98,197,86 Erie Plaza,,Toledo,Ohio,43666
99,198,60949 Armistice Point,,Charleston,West Virginia,25331
100,199,3 Kensington Parkway,,Melbourne,Florida,32941
101,200,75170 Heffernan Way,,Apache Junction,Arizona,85219
102,201,8 Del Sol Place,,New York City,New York,10249
103,202,080 Laurel Center,,Denver,Colorado,80299
104,203,37439 Buena Vista Circle,5768,Tulsa,Oklahoma,74108
105,204,87 Namekagon Road,,Knoxville,Tennessee,37914
106,205,62771 Elmside Plaza,,Corpus Christi,Texas,78426
107,206,4407 International Alley,,San Antonio,Texas,78291
108,207,381 La Follette Alley,,Denver,Colorado,80249
109,208,32 Schurz Point,,Rochester,New York,14646
110,209,128 High Crossing Park,,Lakeland,Florida,33805
111,210,2 Grim Plaza,,Greenville,South Carolina,29605
112,211,5 Swallow Junction,,Hot Springs National Park,Arkansas,71914
113,212,4 Sullivan Parkway,,Washington,District of Columbia,20591
114,213,5 Harbort Plaza,,Pompano Beach,Florida,33075
115,214,155 Grover Junction,,Washington,District of Columbia,20520
116,215,57 Anzinger Alley,,New York City,New York,10120
117,216,0 Melrose Court,,Dayton,Ohio,45419
118,217,0 Lindbergh Way,,Bloomington,Indiana,47405
119,218,220 Sloan Road,,Springfield,Illinois,62718
120,219,66803 Katie Lane,,Detroit,Michigan,48224
121,220,2 Dakota Park,739,Pittsburgh,Pennsylvania,15225
122,221,69 Stoughton Lane,709,Harrisburg,Pennsylvania,17140
123,222,7 Golf View Plaza,,Houston,Texas,77065
124,223,879 Warrior Center,,Houston,Texas,77260
125,224,0 Bayside Center,0218,Largo,Florida,33777
126,225,38 Sundown Place,,Milwaukee,Wisconsin,53210
127,226,965 Melody Alley,4509,Albuquerque,New Mexico,87190
128,227,65666 Lukken Point,,Memphis,Tennessee,38150
129,228,18 Kipling Road,6,Pensacola,Florida,32511
130,229,6253 8th Court,,Sacramento,California,94297
131,230,2259 Stuart Pass,,Boca Raton,Florida,33487
132,231,64075 Messerschmidt Court,,Washington,District of Columbia,20205
133,232,635 Tony Lane,,Anderson,Indiana,46015
134,233,8 Pearson Road,,San Antonio,Texas,78215
135,234,96 Warrior Parkway,,Dallas,Texas,75287
136,235,611 2nd Terrace,,Hartford,Connecticut,06145
137,236,15 Garrison Street,,Silver Spring,Maryland,20918
138,237,85 Barby Center,,Tacoma,Washington,98464
139,238,360 Melvin Way,,Helena,Montana,59623
140,239,34182 Maple Pass,,Fairfax,Virginia,22036
141,240,4 Dexter Plaza,,Syracuse,New York,13224
142,241,3 Thackeray Road,,Seattle,Washington,98115
143,242,4181 Golf View Pass,,Fort Worth,Texas,76198
144,243,633 1st Drive,,Denver,Colorado,80255
145,244,3 Pepper Wood Plaza,,Orlando,Florida,32830
146,245,497 Vermont Parkway,,Fort Pierce,Florida,34949
147,246,2945 Oriole Crossing,,Santa Barbara,California,93150
148,247,6 Sommers Lane,,Chattanooga,Tennessee,37410
149,248,3165 Lakewood Street,,Virginia Beach,Virginia,23454
150,249,418 Manufacturers Avenue,,Newark,Delaware,19714
151,250,63 Carey Drive,,Rochester,Minnesota,55905
152,251,0846 Kim Place,,Silver Spring,Maryland,20910
153,252,1897 Gerald Drive,,Savannah,Georgia,31422
154,253,8 Garrison Plaza,,Kansas City,Missouri,64109
155,254,1 Myrtle Crossing,,Los Angeles,California,90081
156,255,4994 Packers Point,55,San Diego,California,92115
157,256,4 Eggendart Avenue,,Saint Louis,Missouri,63169
158,257,8347 Northport Street,,Nashville,Tennessee,37250
159,258,0056 Old Shore Road,,Littleton,Colorado,80127
160,259,59 Eagle Crest Avenue,,Memphis,Tennessee,38114
161,260,5328 Steensland Court,,Raleigh,North Carolina,27690
162,261,81931 Sunfield Trail,,Shreveport,Louisiana,71166
163,262,26038 Hovde Park,,Whittier,California,90610
164,263,35627 Meadow Ridge Pass,,Richmond,Virginia,23225
165,264,66 Hallows Alley,,San Antonio,Texas,78260
166,265,835 Heath Crossing,,El Paso,Texas,79934
167,266,0010 Esch Avenue,23,Houston,Texas,77212
168,267,5 American Alley,,Springfield,Massachusetts,01105
169,268,84 Pepper Wood Hill,6872,Littleton,Colorado,80127
170,269,4035 Emmet Road,,Dallas,Texas,75226
171,270,3143 Esch Terrace,9178,Newport News,Virginia,23612
172,271,2992 Mccormick Lane,,Nashville,Tennessee,37245
173,272,5277 Bunting Terrace,,Boston,Massachusetts,02208
174,273,721 Ronald Regan Street,,Wilkes Barre,Pennsylvania,18763
175,274,85050 Mariners Cove Avenue,,Washington,District of Columbia,20051
176,275,54 Everett Hill,,Fort Lauderdale,Florida,33355
177,276,50050 Riverside Way,44,Metairie,Louisiana,70005
178,277,5 Meadow Vale Place,5436,Washington,District of Columbia,20525
179,278,32112 Ohio Hill,,Rochester,New York,14639
180,279,4847 Birchwood Way,,Dayton,Ohio,45419
181,280,98440 Novick Park,,Lexington,Kentucky,40576
182,281,018 Evergreen Point,,Washington,District of Columbia,20414
183,282,0603 Paget Avenue,,Denver,Colorado,80204
184,283,90 Becker Junction,,Madison,Wisconsin,53726
185,284,9677 Atwood Road,,Longview,Texas,75605
186,285,67012 Novick Place,,San Antonio,Texas,78210
187,286,038 Clemons Hill,,Buffalo,New York,14210
188,287,82311 Magdeline Point,,Anchorage,Alaska,99517
189,288,15969 Anzinger Hill,,Colorado Springs,Colorado,80945
190,289,7587 Johnson Road,,San Diego,California,92160
191,290,5 Linden Point,,Wichita,Kansas,67260
192,291,37 Sullivan Center,,Rochester,New York,14646
193,292,7298 Valley Edge Court,7201,Mobile,Alabama,36670
194,293,59 Springview Court,,Phoenix,Arizona,85099
195,294,440 Blue Bill Park Center,,Louisville,Kentucky,40205
196,295,70 Steensland Street,,Newton,Massachusetts,02162
197,296,7 Kings Court,,Fairfield,Connecticut,06825
198,297,90 Onsgard Center,,Gaithersburg,Maryland,20883
199,298,0539 Straubel Drive,56046,Sacramento,California,95838
200,299,877 Sycamore Hill,,Albany,New York,12247
201,300,20 Dorton Court,,Richmond,Virginia,23228
202,301,25 Thackeray Way,8111,Reno,Nevada,89505
203,302,136 Kropf Pass,,Los Angeles,California,90055
204,303,1669 Pond Alley,,Akron,Ohio,44321
205,304,567 Dwight Way,,Madison,Wisconsin,53716
206,305,51 Vermont Avenue,,San Bernardino,California,92424
207,306,1584 Bunting Drive,,Dayton,Ohio,45414
208,307,67 Westport Road,,Louisville,Kentucky,40250
209,308,5222 Alpine Road,,Dayton,Ohio,45419
210,309,5267 Hudson Court,,Brooklyn,New York,11236
211,310,8 South Hill,,Huntsville,Texas,77343
212,311,64 Utah Plaza,,South Lake Tahoe,California,96154
213,312,77870 Heath Point,,Flint,Michigan,48555
214,313,3 Crescent Oaks Avenue,,Jacksonville,Florida,32225
215,314,8 Mendota Circle,,Boca Raton,Florida,33499
216,315,2 Corben Court,,Houston,Texas,77085
217,316,4240 Charing Cross Drive,,Washington,District of Columbia,20220
218,317,33 Vahlen Alley,,Providence,Rhode Island,02912
219,318,96389 Glendale Junction,,Oklahoma City,Oklahoma,73173
220,319,6988 Sauthoff Trail,,Southfield,Michigan,48076
221,320,8531 Ronald Regan Avenue,,Colorado Springs,Colorado,80945
222,321,8 Leroy Terrace,,Philadelphia,Pennsylvania,19146
223,322,96 Corry Hill,,Amarillo,Texas,79176
224,323,69742 Dayton Street,,Philadelphia,Pennsylvania,19109
225,324,0627 Hauk Park,,Atlanta,Georgia,31196
226,325,251 Nelson Park,4956,Phoenix,Arizona,85040
227,326,57593 Shoshone Crossing,,Akron,Ohio,44329
228,327,048 Spohn Street,,Petaluma,California,94975
229,328,96658 Dapin Court,,Carol Stream,Illinois,60158
230,329,3 Knutson Lane,,New Orleans,Louisiana,70179
231,330,7 Dexter Center,,Irving,Texas,75037
232,331,6 Lukken Avenue,,Columbus,Ohio,43240
233,332,80939 Raven Street,,Young America,Minnesota,55557
234,333,5 Parkside Road,,Charleston,West Virginia,25321
235,334,59 Stephen Avenue,66540,Saint Louis,Missouri,63158
236,335,2652 Rigney Way,,Jackson,Mississippi,39282
237,336,229 Tomscot Alley,,Portland,Oregon,97232
238,337,6942 Pine View Way,,Augusta,Georgia,30919
239,338,191 Bluestem Plaza,,Los Angeles,California,90065
240,339,27171 Bluejay Street,,Flushing,New York,11355
241,340,9 Spenser Trail,,Winston Salem,North Carolina,27150
242,341,0604 Sloan Lane,,San Bernardino,California,92415
243,342,47289 Schmedeman Lane,,Oakland,California,94627
244,343,22 Birchwood Street,4,Springfield,Illinois,62794
245,344,4723 Sauthoff Way,,Boston,Massachusetts,02216
246,345,4 Chive Pass,74,Sparks,Nevada,89436
247,346,16 Luster Alley,,Cleveland,Ohio,44191
248,347,82 American Ash Court,,Memphis,Tennessee,38150
249,348,88 Fallview Hill,,Homestead,Florida,33034
250,349,894 Melby Drive,8024,Bradenton,Florida,34210
251,350,5 2nd Place,,Honolulu,Hawaii,96845
252,351,6611 Susan Place,,Fullerton,California,92640
253,352,24828 Schiller Place,,Evansville,Indiana,47719
254,353,41 Maryland Place,,New Orleans,Louisiana,70154
255,354,50 Kropf Trail,,Knoxville,Tennessee,37924
256,355,1162 Kenwood Pass,,Long Beach,California,90831
257,356,79875 Warbler Trail,,Green Bay,Wisconsin,54305
258,357,312 Sutteridge Place,,Milwaukee,Wisconsin,53225
259,358,60403 Lakewood Terrace,,Green Bay,Wisconsin,54313
260,359,17 Starling Pass,,Portland,Oregon,97229
261,360,1894 Graedel Pass,,Fresno,California,93778
262,361,0166 Clemons Circle,,San Jose,California,95155
263,362,9349 Walton Court,36,Newark,New Jersey,07195
264,363,84 Sunbrook Drive,97,Evansville,Indiana,47725
265,364,1 Laurel Hill,,Greenville,South Carolina,29615
266,365,3558 Di Loreto Pass,,Los Angeles,California,90087
267,366,4 Lien Court,,Washington,District of Columbia,20226
268,367,2 Dunning Center,,Lehigh Acres,Florida,33972
269,368,2047 Glacier Hill Alley,31358,San Diego,California,92145
270,369,554 Amoth Center,,Cambridge,Massachusetts,02142
271,370,94 Shoshone Trail,,Kansas City,Missouri,64160
272,371,122 Fuller Avenue,,Washington,District of Columbia,20380
273,372,50 Pankratz Road,,East Saint Louis,Illinois,62205
274,373,9680 Burning Wood Drive,,Saint Louis,Missouri,63126
275,374,27 Vermont Place,,Hyattsville,Maryland,20784
276,375,5 Lawn Park,,Denver,Colorado,80255
277,376,78 Old Shore Road,,Charleston,West Virginia,25362
278,377,4 Hanson Way,,Philadelphia,Pennsylvania,19115
279,378,15771 Lerdahl Pass,,Bradenton,Florida,34282
280,379,0825 Ilene Parkway,,Omaha,Nebraska,68134
281,380,27 Ludington Trail,,Shawnee Mission,Kansas,66276
282,381,3 Division Parkway,,Saint Louis,Missouri,63116
283,382,2 Havey Alley,,Omaha,Nebraska,68110
284,383,69 Lunder Lane,,Delray Beach,Florida,33448
285,384,6 Banding Terrace,,Santa Monica,California,90410
286,385,99 Sauthoff Plaza,,Pittsburgh,Pennsylvania,15279
287,386,77711 Westport Circle,5,Jackson,Mississippi,39204
288,387,0 Ryan Lane,,Atlanta,Georgia,30380
289,388,20 Melrose Court,75993,Saint Louis,Missouri,63169
290,389,9 Kensington Place,,Memphis,Tennessee,38119
291,390,2287 Anderson Trail,,New York City,New York,10275
292,391,888 Victoria Lane,,Indianapolis,Indiana,46254
293,392,015 Victoria Road,,North Port,Florida,34290
294,393,92850 Barnett Street,,Phoenix,Arizona,85045
295,394,16 Anzinger Pass,,Chicago,Illinois,60663
296,395,05 Lakeland Hill,,Mesa,Arizona,85215
297,396,565 Derek Alley,,Valley Forge,Pennsylvania,19495
298,397,137 Judy Park,,Newark,New Jersey,07112
299,398,7741 Bobwhite Crossing,,Dallas,Texas,75216
300,399,65 Main Place,,Fort Wayne,Indiana,46825
301,400,8382 Glacier Hill Hill,,Colorado Springs,Colorado,80910
302,401,3 Corben Park,,Columbus,Ohio,43284
303,402,4 Village Trail,,Houston,Texas,77260
304,403,9136 Golden Leaf Court,23533,Wilmington,Delaware,19897
305,404,0056 Schlimgen Crossing,,Stockton,California,95205
306,405,1 Dakota Hill,2315,Pasadena,Texas,77505
307,406,7 North Trail,8,Cedar Rapids,Iowa,52405
308,407,975 Hanover Hill,,Durham,North Carolina,27710
309,408,15274 Northland Parkway,,New York City,New York,10175
310,409,85150 Melody Road,,Pasadena,California,91125
311,410,05 Welch Center,,Orlando,Florida,32813
312,411,4202 Melvin Way,,Washington,District of Columbia,20404
313,412,55 Harper Street,,Baltimore,Maryland,21229
314,413,6671 Michigan Park,,Hot Springs National Park,Arkansas,71914
315,414,6 Independence Lane,,Newark,New Jersey,07112
316,415,887 Ridge Oak Avenue,,Sioux Falls,South Dakota,57198
317,416,65126 Kennedy Road,,Stockton,California,95219
318,417,8 Old Shore Street,,Manchester,New Hampshire,03105
319,418,00877 Esker Parkway,,Detroit,Michigan,48211
320,419,6 Independence Alley,,Denver,Colorado,80228
321,420,6864 Northridge Park,,Birmingham,Alabama,35210
322,421,07 Ludington Crossing,,New York City,New York,10105
323,422,3 New Castle Way,,Springfield,Massachusetts,01114
324,423,719 Montana Lane,,Gulfport,Mississippi,39505
325,424,2912 Fallview Court,,Boise,Idaho,83722
326,425,117 Waubesa Hill,28,Kansas City,Missouri,64130
327,426,2930 Russell Court,,Cheyenne,Wyoming,82007
328,427,0077 Saint Paul Road,,Fort Lauderdale,Florida,33345
329,428,76730 Rieder Junction,,Cleveland,Ohio,44197
330,429,37 Hoffman Point,45,Pittsburgh,Pennsylvania,15210
331,430,3 Declaration Way,,Atlanta,Georgia,31165
332,431,07 Cherokee Plaza,,Dearborn,Michigan,48126
333,432,5929 Kensington Center,18,Shreveport,Louisiana,71151
334,433,6 Coleman Place,,North Port,Florida,34290
335,434,9128 Warner Court,,Chicago,Illinois,60657
336,435,109 Bartelt Junction,,Newton,Massachusetts,02162
337,436,8035 Twin Pines Point,,Charleston,West Virginia,25389
338,437,528 Moland Court,,Washington,District of Columbia,20370
339,438,167 Hansons Court,25273,West Palm Beach,Florida,33416
340,439,4 Killdeer Parkway,,Philadelphia,Pennsylvania,19109
341,440,8 Barby Point,,El Paso,Texas,88569
342,441,0 Milwaukee Hill,,Saint Petersburg,Florida,33737
343,442,55564 Mesta Pass,606,Birmingham,Alabama,35242
344,443,4 Ridgeway Park,,New York City,New York,10155
345,444,09861 Stoughton Court,,Whittier,California,90610
346,445,1 Norway Maple Point,,Erie,Pennsylvania,16534
347,446,493 Schurz Park,,San Francisco,California,94110
348,447,61780 Forest Dale Junction,,Reno,Nevada,89519
349,448,6698 Sachtjen Alley,,Waterloo,Iowa,50706
350,449,53902 Arapahoe Plaza,,Cincinnati,Ohio,45243
351,450,4743 Schlimgen Parkway,,Fargo,North Dakota,58106
352,451,1401 Pearson Terrace,,El Paso,Texas,88569
353,452,032 Butternut Pass,,Fort Lauderdale,Florida,33305
354,453,84 Buhler Crossing,,Seattle,Washington,98185
355,454,092 Sycamore Hill,,Aiken,South Carolina,29805
356,455,30424 Cherokee Alley,,San Antonio,Texas,78291
357,456,08 Granby Center,42928,San Francisco,California,94159
358,457,1111 Starling Point,,Evanston,Illinois,60208
359,458,5 Canary Road,,Rochester,New York,14683
360,459,6424 Pierstorff Place,,Birmingham,Alabama,35254
361,460,36 Mcguire Plaza,8,Birmingham,Alabama,35210
362,461,78 Esch Court,50,Columbia,South Carolina,29225
363,462,35175 Thackeray Point,,Huntington,West Virginia,25721
364,463,6 Charing Cross Center,04,Pittsburgh,Pennsylvania,15205
365,464,64 Forest Dale Way,,Berkeley,California,94712
366,465,2619 Caliangt Road,,Houston,Texas,77080
367,466,6541 Superior Court,,Macon,Georgia,31296
368,467,4 Di Loreto Parkway,,Beaverton,Oregon,97075
369,468,4 Veith Terrace,380,San Antonio,Texas,78235
370,469,9 Sutherland Terrace,,Boston,Massachusetts,02203
371,470,13250 Evergreen Street,,Springfield,Illinois,62776
372,471,2903 Hoepker Hill,8,Saint Cloud,Minnesota,56372
373,472,460 Novick Plaza,,Dallas,Texas,75216
374,473,66 Prairieview Hill,,Denver,Colorado,80243
375,474,53 Chinook Hill,,Jackson,Mississippi,39282
376,475,2 Cascade Terrace,,Louisville,Kentucky,40220
377,476,58 Eagle Crest Drive,,Cambridge,Massachusetts,02142
378,477,07 Vahlen Junction,,Reno,Nevada,89595
379,478,60179 Emmet Crossing,,Springfield,Massachusetts,01114
380,479,28190 Ridgeview Junction,,Cleveland,Ohio,44105
381,480,3137 Dwight Crossing,,Dallas,Texas,75226
382,481,3 Glacier Hill Avenue,,Erie,Pennsylvania,16510
383,482,2 Upham Pass,,Newton,Massachusetts,02162
384,483,55221 7th Alley,,El Paso,Texas,88546
385,484,61280 Lake View Pass,,Milwaukee,Wisconsin,53263
386,485,15 Dahle Plaza,53709,Roanoke,Virginia,24004
387,486,6 Oneill Court,,Houston,Texas,77240
388,487,042 Jana Drive,,Spring,Texas,77388
389,488,1314 Fairview Place,,Atlanta,Georgia,30368
390,489,976 Ruskin Parkway,,Chicago,Illinois,60614
391,490,7 Bashford Plaza,,Pueblo,Colorado,81015
392,491,6 Glendale Parkway,,Fresno,California,93794
393,492,91 Maple Wood Pass,,Providence,Rhode Island,02912
394,493,71 Atwood Way,,Delray Beach,Florida,33448
395,494,96997 Muir Center,,Sacramento,California,95852
396,495,84458 Iowa Center,33914,Vero Beach,Florida,32969
397,496,4 Helena Center,,Hyattsville,Maryland,20784
398,497,425 Waxwing Hill,,Atlanta,Georgia,31132
399,498,96598 Pierstorff Parkway,334,Amarillo,Texas,79188
400,499,9 Shopko Center,,Colorado Springs,Colorado,80995
401,500,8995 Kim Terrace,,Saint Petersburg,Florida,33705
402,501,3088 Del Mar Plaza,,Austin,Texas,78715
403,502,46 Leroy Circle,,Buffalo,New York,14205
404,503,0795 Cody Trail,,New Haven,Connecticut,06538
405,504,29864 Hoard Center,65688,Wichita,Kansas,67230
406,505,9 Ronald Regan Way,,Grand Rapids,Michigan,49505
407,506,459 Clyde Gallagher Way,,Boulder,Colorado,80305
408,507,09927 Kropf Way,,New York City,New York,10034
409,508,71342 Hoffman Pass,81212,Portland,Oregon,97211
410,509,9753 Fordem Junction,,Glendale,Arizona,85311
411,510,06 Declaration Junction,0406,Miami,Florida,33283
412,511,0923 Mayfield Point,,Oklahoma City,Oklahoma,73119
413,512,58 Graedel Alley,,Minneapolis,Minnesota,55402
414,513,0 Darwin Pass,7,New York City,New York,10115
415,514,5 Texas Pass,,El Paso,Texas,88514
416,515,36 Iowa Center,,Little Rock,Arkansas,72215
417,516,1 Talisman Hill,,Dayton,Ohio,45403
418,517,043 Schiller Terrace,10629,Tucson,Arizona,85732
419,518,5736 Old Gate Place,899,Maple Plain,Minnesota,55579
420,519,8 Brentwood Park,,Tallahassee,Florida,32304
421,520,0 Upham Junction,,Huntington,West Virginia,25726
422,521,093 Thompson Center,9,Richmond,Virginia,23213
423,522,34 Lunder Street,,Milwaukee,Wisconsin,53205
424,523,9 Boyd Hill,,Dallas,Texas,75210
425,524,4 Orin Lane,,El Paso,Texas,88569
426,525,58 Redwing Plaza,,Hartford,Connecticut,06152
427,526,05891 Corben Circle,,Dallas,Texas,75397
428,527,9 Vernon Drive,,San Francisco,California,94147
429,528,8229 Scofield Court,,Kansas City,Missouri,64160
430,529,16971 Fordem Place,,Virginia Beach,Virginia,23459
431,530,807 Canary Road,,Cheyenne,Wyoming,82007
432,531,561 Anthes Crossing,,Montgomery,Alabama,36125
433,532,713 Clove Drive,4682,Fresno,California,93773
434,533,8990 Bashford Drive,,Baltimore,Maryland,21265
435,534,6 Tennyson Center,,Oklahoma City,Oklahoma,73135
436,535,507 Algoma Circle,,Oakland,California,94627
437,536,0774 Quincy Lane,,Houston,Texas,77095
438,537,1074 Declaration Point,,Omaha,Nebraska,68110
439,538,0 Truax Place,13,Phoenix,Arizona,85053
440,539,2 Spaight Court,,Lexington,Kentucky,40505
441,540,2 Division Trail,43327,New Orleans,Louisiana,70179
442,541,60 Claremont Alley,,Memphis,Tennessee,38197
443,542,33391 Waubesa Center,,Albany,New York,12255
444,543,94 Forster Center,,Houston,Texas,77005
445,544,09736 Sauthoff Crossing,,Buffalo,New York,14225
446,545,77215 East Terrace,,Pueblo,Colorado,81005
447,546,93713 Morningstar Place,,New Haven,Connecticut,06510
448,547,9 Sage Park,,Spartanburg,South Carolina,29305
449,548,318 Anderson Way,22491,Las Vegas,Nevada,89120
450,549,0 Northport Way,,Jersey City,New Jersey,07310
451,550,284 Center Parkway,,Des Moines,Iowa,50362
452,551,7998 New Castle Way,,Charlotte,North Carolina,28242
453,552,978 Knutson Lane,3846,Norfolk,Virginia,23514
454,553,67 Canary Terrace,,Juneau,Alaska,99812
455,554,17604 Fieldstone Hill,,Houston,Texas,77281
456,555,74 Little Fleur Pass,,Bronx,New York,10459
457,556,74946 Becker Trail,,Washington,District of Columbia,20456
458,557,201 Northridge Parkway,,Birmingham,Alabama,35231
459,558,063 Summer Ridge Place,,Miami,Florida,33180
460,559,00 Stephen Crossing,,Corpus Christi,Texas,78426
461,560,2 Novick Pass,,Salt Lake City,Utah,84189
462,561,7399 Packers Plaza,4,Anchorage,Alaska,99512
463,562,4 Eagan Trail,,Boca Raton,Florida,33487
464,563,6 Oxford Center,,Greenville,South Carolina,29610
465,564,91 Darwin Circle,,Baltimore,Maryland,21211
466,565,15121 Eastlawn Place,,Saint Augustine,Florida,32092
467,566,51054 Anniversary Trail,,Mount Vernon,New York,10557
468,567,64 Vera Trail,,Indianapolis,Indiana,46254
469,568,10311 Randy Way,,Miami,Florida,33153
470,569,602 Pleasure Drive,,Daytona Beach,Florida,32123
471,570,02639 Johnson Circle,,Irving,Texas,75062
472,571,114 Harbort Junction,,Lubbock,Texas,79405
473,572,6547 Manley Terrace,1532,Paterson,New Jersey,07505
474,573,40 Iowa Hill,,Lexington,Kentucky,40586
475,574,200 Barby Hill,,Colorado Springs,Colorado,80945
476,575,8072 Arizona Court,52336,Jackson,Mississippi,39216
477,576,281 Algoma Alley,,Yakima,Washington,98907
478,577,52 Oak Street,,Hampton,Virginia,23663
479,578,92483 Cascade Road,,San Antonio,Texas,78285
480,579,382 Longview Road,,Anchorage,Alaska,99517
481,580,678 Jackson Drive,,Washington,District of Columbia,20430
482,581,2370 Sachs Hill,,Huntsville,Alabama,35810
483,582,9712 Alpine Crossing,,Mansfield,Ohio,44905
484,583,8105 Dawn Center,,Brea,California,92822
485,584,94 Hollow Ridge Alley,,Yakima,Washington,98907
486,585,60466 Anhalt Lane,,Lima,Ohio,45807
487,586,8376 Goodland Center,,Houston,Texas,77075
488,587,9 Spaight Park,,Anchorage,Alaska,99507
489,588,2018 Tennyson Center,90,Anchorage,Alaska,99512
490,589,907 Prairie Rose Center,,Phoenix,Arizona,85099
491,590,92523 Oriole Plaza,,Miami,Florida,33129
492,591,219 School Pass,,Kansas City,Missouri,64187
493,592,054 Forest Run Point,,Lancaster,Pennsylvania,17605
494,593,0 New Castle Parkway,,Saint Paul,Minnesota,55166
495,594,862 Lillian Court,,Phoenix,Arizona,85020
496,595,7 Hollow Ridge Junction,,Erie,Pennsylvania,16522
497,596,735 Spenser Park,,Boston,Massachusetts,02163
498,597,2293 Lillian Place,,Mount Vernon,New York,10557
499,598,03 Eliot Parkway,,Virginia Beach,Virginia,23464
500,599,9 Nevada Crossing,,Littleton,Colorado,80127
501,600,04 Schiller Trail,2399,San Mateo,California,94405
502,601,71 Buell Court,,Memphis,Tennessee,38136
503,602,89555 Hanover Pass,0,Fort Lauderdale,Florida,33336
504,603,77347 Magdeline Lane,,Topeka,Kansas,66617
505,604,5 Packers Junction,,Kansas City,Missouri,64149
506,605,34634 Lakewood Gardens Street,,Bridgeport,Connecticut,06606
507,606,98 Schlimgen Lane,,Lincoln,Nebraska,68524
508,607,39 East Parkway,,Danbury,Connecticut,06816
509,608,943 Eagle Crest Plaza,,Wichita,Kansas,67260
510,609,8 Maryland Avenue,,Lafayette,Louisiana,70593
511,610,2 Briar Crest Lane,,Worcester,Massachusetts,01654
512,611,57674 Reindahl Pass,052,Saint Louis,Missouri,63116
513,612,89850 Maywood Alley,,Jackson,Mississippi,39236
514,613,73 Erie Place,,Sacramento,California,95852
515,614,11 Farragut Point,,Grand Rapids,Michigan,49518
516,615,677 School Drive,9,Raleigh,North Carolina,27615
517,616,8182 North Lane,,Tucson,Arizona,85725
518,617,3 Longview Parkway,8721,Richmond,Virginia,23228
519,618,31 Village Alley,,Wichita,Kansas,67205
520,619,2134 Evergreen Place,,Cape Coral,Florida,33915
521,620,6 Lawn Plaza,,Biloxi,Mississippi,39534
522,621,5 Fisk Circle,86415,New Orleans,Louisiana,70183
523,622,79207 Bunker Hill Lane,57793,Salt Lake City,Utah,84170
524,623,76 Granby Hill,,New Haven,Connecticut,06520
525,624,2785 Superior Trail,1,Richmond,Virginia,23208
526,625,911 Grayhawk Point,,Lincoln,Nebraska,68524
527,626,9999 Hollow Ridge Terrace,,Washington,District of Columbia,20551
528,627,497 School Junction,,El Paso,Texas,79994
529,628,335 Lakewood Gardens Drive,,Huntington,West Virginia,25775
530,629,35 Golf View Avenue,,Birmingham,Alabama,35210
531,630,1836 Mesta Road,,Ashburn,Virginia,22093
532,631,28806 Waxwing Plaza,,El Paso,Texas,79977
533,632,8 Parkside Park,,Newton,Massachusetts,02162
534,633,70561 Fallview Junction,,Lexington,Kentucky,40510
535,634,89397 Springs Crossing,,Chicago,Illinois,60630
536,635,4 Sauthoff Terrace,,Richmond,Virginia,23213
537,636,6 Sauthoff Trail,,Washington,District of Columbia,20370
538,637,59 Kim Pass,,Virginia Beach,Virginia,23459
539,638,87 Del Mar Lane,,Lexington,Kentucky,40596
540,639,8275 Bluestem Place,,Boston,Massachusetts,02298
541,640,2082 Garrison Place,,Stockton,California,95298
542,641,3 Toban Hill,,Louisville,Kentucky,40233
543,642,115 Sunbrook Alley,2495,Bonita Springs,Florida,34135
544,643,7772 Loomis Alley,6,Newport News,Virginia,23605
545,644,59 Ramsey Hill,,Detroit,Michigan,48224
546,645,449 Bay Avenue,,Pittsburgh,Pennsylvania,15261
547,646,43 Marcy Trail,,Spring,Texas,77386
548,647,586 Hoffman Trail,,Roanoke,Virginia,24029
549,648,7430 Mallard Street,,Scottsdale,Arizona,85255
550,649,2400 Clarendon Avenue,,Hartford,Connecticut,06160
551,650,99 Laurel Point,,Evansville,Indiana,47732
552,651,52443 Hallows Road,,Orlando,Florida,32803
553,652,2347 Oneill Court,,Fairbanks,Alaska,99709
554,653,1006 Loftsgordon Crossing,971,Cincinnati,Ohio,45208
555,654,255 Superior Place,,Waco,Texas,76711
556,655,559 Corscot Point,,Fresno,California,93750
557,656,2 Troy Junction,5,Des Moines,Iowa,50936
558,657,61 Dexter Junction,,Fort Smith,Arkansas,72916
559,658,6821 Kipling Junction,3357,Houston,Texas,77070
560,659,6 Menomonie Court,,Springfield,Illinois,62723
561,660,68 Declaration Street,,Alexandria,Virginia,22313
562,661,08371 Hoard Avenue,878,Honolulu,Hawaii,96805
563,662,4274 Dottie Road,,Albuquerque,New Mexico,87190
564,663,002 Pierstorff Lane,,Arlington,Virginia,22217
565,664,8784 Meadow Valley Court,,Shawnee Mission,Kansas,66215
566,665,0199 Fallview Street,,Flushing,New York,11388
567,666,43 Charing Cross Alley,,Indianapolis,Indiana,46266
568,667,47 Huxley Street,,Detroit,Michigan,48206
569,668,87 Hudson Hill,,Baton Rouge,Louisiana,70810
570,669,0869 Armistice Court,,Colorado Springs,Colorado,80940
571,670,5 Aberg Crossing,,Charleston,South Carolina,29424
572,671,45414 Moland Way,,Jefferson City,Missouri,65105
573,672,92 Linden Road,,Vancouver,Washington,98687
574,673,08934 Surrey Court,,New York City,New York,10029
575,674,47 Menomonie Pass,,Baltimore,Maryland,21281
576,675,382 Morning Parkway,,Saint Louis,Missouri,63116
577,676,55164 David Junction,3931,Colorado Springs,Colorado,80951
578,677,0 Tony Terrace,,Phoenix,Arizona,85083
579,678,8 Southridge Trail,,Philadelphia,Pennsylvania,19196
580,679,7 Clarendon Court,,New York City,New York,10039
581,680,38 Sunbrook Road,42,Chicago,Illinois,60674
582,681,55436 Scoville Point,,Tampa,Florida,33625
583,682,16 Judy Alley,2,Ogden,Utah,84403
584,683,10533 Vera Center,,Peoria,Illinois,61614
585,684,78107 Rowland Alley,,Ogden,Utah,84409
586,685,41674 Manufacturers Circle,,Boca Raton,Florida,33487
587,686,45 Thierer Street,,Bakersfield,California,93305
588,687,64 Summit Crossing,,Kansas City,Missouri,64109
589,688,0 Pawling Place,0123,Van Nuys,California,91406
590,689,5171 Gina Street,4,Pocatello,Idaho,83206
591,690,7 Oakridge Place,,Shawnee Mission,Kansas,66210
592,691,0776 Thompson Place,8,Syracuse,New York,13217
593,692,01 Meadow Vale Lane,,Omaha,Nebraska,68179
594,693,50 Oriole Park,,Corona,California,92883
595,694,409 Melby Hill,,Hartford,Connecticut,06120
596,695,43 Mcbride Alley,,Aurora,Illinois,60505
597,696,75455 Warrior Trail,,Stockton,California,95298
598,697,3584 Carpenter Terrace,,Saginaw,Michigan,48609
599,698,2358 Ruskin Parkway,,Jersey City,New Jersey,07310
600,699,4523 Thackeray Place,,San Francisco,California,94116
601,700,12788 Laurel Circle,,New Orleans,Louisiana,70165
602,701,7552 Petterle Center,,Indianapolis,Indiana,46239
603,702,655 Kim Road,,Minneapolis,Minnesota,55448
604,703,44217 Sugar Court,,Davenport,Iowa,52809
605,704,3 Maywood Street,,Tucson,Arizona,85705
606,705,089 Warner Drive,,Chicago,Illinois,60697
607,706,892 Westport Alley,5,Denver,Colorado,80270
608,707,1743 Bultman Hill,,Erie,Pennsylvania,16550
609,708,44505 Mayer Hill,,Bakersfield,California,93305
610,709,84 Warrior Center,,Columbus,Ohio,43240
611,710,71 Mesta Plaza,,Huntington,West Virginia,25775
612,711,56951 Kim Terrace,,Glendale,California,91205
613,712,64 Surrey Crossing,,Topeka,Kansas,66611
614,713,382 Mcbride Plaza,,Charleston,South Carolina,29403
615,714,0 Mendota Drive,,Jamaica,New York,11431
616,715,0179 Jackson Plaza,,Mobile,Alabama,36622
617,716,242 Clarendon Street,,Miami Beach,Florida,33141
618,717,8235 Almo Place,93,Nashville,Tennessee,37205
619,718,55 Holmberg Parkway,,Dallas,Texas,75265
620,719,69 6th Point,,Virginia Beach,Virginia,23454
621,720,99401 Butterfield Lane,,Columbia,South Carolina,29215
622,721,54594 Dunning Road,,Amarillo,Texas,79105
623,722,7 Sullivan Point,,Birmingham,Alabama,35254
624,723,324 Lerdahl Pass,,Saint Louis,Missouri,63196
625,724,59245 Messerschmidt Terrace,,Mobile,Alabama,36628
626,725,45227 2nd Parkway,,Atlanta,Georgia,30340
627,726,4768 Randy Hill,,Bakersfield,California,93381
628,727,78 Carey Alley,0045,Hartford,Connecticut,06160
629,728,27173 Forest Court,,Nashville,Tennessee,37240
630,729,999 Troy Crossing,0210,Los Angeles,California,90020
631,730,3 Pennsylvania Point,,Naples,Florida,33961
632,731,6 Dryden Road,,Portland,Oregon,97286
633,732,98 Farwell Place,,Houston,Texas,77070
634,733,20552 Tennessee Circle,,Milwaukee,Wisconsin,53210
635,734,034 Butternut Trail,99,Washington,District of Columbia,20226
636,735,95845 Havey Junction,091,Salt Lake City,Utah,84130
637,736,1685 Becker Center,,Youngstown,Ohio,44505
638,737,7 Prairieview Drive,,Atlanta,Georgia,31196
639,738,956 Park Meadow Street,,Chesapeake,Virginia,23324
640,739,76 Elka Center,,Seattle,Washington,98133
641,740,42687 Blackbird Crossing,,Buffalo,New York,14215
642,741,326 Northwestern Park,,Toledo,Ohio,43635
643,742,92 Buhler Plaza,,Baltimore,Maryland,21203
644,743,45853 Scoville Circle,,Hampton,Virginia,23668
645,744,4996 Warbler Hill,,Fairbanks,Alaska,99790
646,745,93 Holy Cross Park,,Anderson,Indiana,46015
647,746,44 Buhler Alley,,Nashville,Tennessee,37250
648,747,1178 Barnett Hill,,Dallas,Texas,75241
649,748,9 Shasta Pass,,Naperville,Illinois,60567
650,749,6050 Cordelia Terrace,,Houston,Texas,77266
651,750,302 Basil Point,,Los Angeles,California,90015
652,751,430 Mayfield Avenue,,New Orleans,Louisiana,70160
653,752,00332 Carpenter Drive,,Sarasota,Florida,34276
654,753,5 Farmco Hill,,Spokane,Washington,99260
655,754,43751 Packers Point,,Chicago,Illinois,60674
656,755,7 Ludington Point,,Long Beach,California,90805
657,756,5 Artisan Lane,,Shawnee Mission,Kansas,66205
658,757,6 Clemons Hill,,Albany,New York,12262
659,758,0 Eagan Junction,,Orlando,Florida,32859
660,759,83 Eastwood Lane,3,Chicago,Illinois,60674
661,760,00 Memorial Court,,Frankfort,Kentucky,40618
662,761,95944 Quincy Avenue,,Santa Fe,New Mexico,87592
663,762,83307 Mayer Hill,,Pensacola,Florida,32590
664,763,4062 Dottie Plaza,,San Jose,California,95113
665,764,2248 Clemons Road,,Shawnee Mission,Kansas,66276
666,765,97375 Hazelcrest Plaza,,Harrisburg,Pennsylvania,17110
667,766,43720 Sauthoff Street,,San Jose,California,95108
668,767,82 Farragut Alley,,Peoria,Arizona,85383
669,768,6882 Grasskamp Pass,,Bronx,New York,10464
670,769,83 Jenna Road,,Washington,District of Columbia,20310
671,770,969 Lien Plaza,,Ocala,Florida,34479
672,771,563 Ridgeview Circle,,Youngstown,Ohio,44505
673,772,1193 Arapahoe Junction,,Boston,Massachusetts,02163
674,773,438 Columbus Hill,4694,Sterling,Virginia,20167
675,774,89 Southridge Trail,,Young America,Minnesota,55557
676,775,408 Armistice Alley,,Corpus Christi,Texas,78475
677,776,789 Prairie Rose Place,,Jackson,Mississippi,39236
678,777,9720 Independence Road,,Houston,Texas,77075
679,778,4963 Farmco Point,,Gastonia,North Carolina,28055
680,779,6 Washington Trail,,Chicago,Illinois,60663
681,780,841 Shopko Street,,Columbus,Ohio,43231
682,781,194 Fallview Avenue,,Syracuse,New York,13224
683,782,70449 Golf Course Plaza,,Richmond,Virginia,23285
684,783,8 Claremont Street,,Terre Haute,Indiana,47812
685,784,1 Gale Lane,,Evansville,Indiana,47725
686,785,38247 Melrose Avenue,,Boise,Idaho,83716
687,786,3 Westridge Court,,Sacramento,California,94257
688,787,105 Trailsway Pass,,Austin,Texas,78744
689,788,08270 Forster Lane,,Henderson,Nevada,89012
690,789,55 Merrick Crossing,9416,Charleston,South Carolina,29403
691,790,18384 Magdeline Place,,Trenton,New Jersey,08619
692,791,8 Trailsway Place,,Syracuse,New York,13205
693,792,51834 Superior Avenue,,Lancaster,Pennsylvania,17622
694,793,8930 Hayes Court,69567,Philadelphia,Pennsylvania,19196
695,794,579 East Point,,Tampa,Florida,33680
696,795,4 Corscot Plaza,,Memphis,Tennessee,38143
697,796,2 Swallow Lane,42001,Dallas,Texas,75226
698,797,8 Spohn Point,17,Southfield,Michigan,48076
699,798,39 4th Place,,Boston,Massachusetts,02163
700,799,6226 Petterle Avenue,,Dayton,Ohio,45408
701,800,2 Algoma Avenue,,Kansas City,Missouri,64153
702,801,99722 Ruskin Plaza,,Austin,Texas,78759
703,802,89420 Mcguire Junction,,Clearwater,Florida,34615
704,803,27 Westerfield Hill,,Columbia,South Carolina,29203
705,804,67396 Evergreen Lane,,Monticello,Minnesota,55565
706,805,418 Mallard Hill,03,Greensboro,North Carolina,27409
707,806,264 Aberg Road,,Phoenix,Arizona,85010
708,807,76 Hooker Place,,Cincinnati,Ohio,45264
709,808,03742 Macpherson Alley,,Tulsa,Oklahoma,74184
710,809,5 Mesta Park,,Springfield,Massachusetts,01129
711,810,6390 Hermina Road,,Yonkers,New York,10705
712,811,741 Mayfield Hill,,Oklahoma City,Oklahoma,73152
713,812,34 West Hill,,Atlanta,Georgia,30368
714,813,7 Eastwood Parkway,,San Diego,California,92153
715,814,5099 Browning Hill,08,Reston,Virginia,20195
716,815,0126 High Crossing Hill,,Orlando,Florida,32859
717,816,6899 Burning Wood Alley,,New York City,New York,10170
718,817,72266 Gulseth Plaza,31111,Dayton,Ohio,45454
719,818,61764 Declaration Hill,,Decatur,Georgia,30089
720,819,353 Amoth Crossing,,Littleton,Colorado,80127
721,820,226 Kensington Terrace,,Detroit,Michigan,48242
722,821,0 Hauk Plaza,36722,Des Moines,Iowa,50936
723,822,8959 Bonner Road,,Milwaukee,Wisconsin,53215
724,823,952 Golden Leaf Way,,Richmond,Virginia,23277
725,824,53 Stone Corner Street,,Saint Paul,Minnesota,55123
726,825,308 Mallard Park,,Cincinnati,Ohio,45218
727,826,965 Westerfield Park,9,Lexington,Kentucky,40546
728,827,9 Oak Park,,Port Saint Lucie,Florida,34985
729,828,2223 Darwin Terrace,,Springfield,Illinois,62756
730,829,60 Marquette Road,,Phoenix,Arizona,85045
731,830,12 Green Ridge Park,,Raleigh,North Carolina,27621
732,831,9994 Coleman Parkway,,Raleigh,North Carolina,27690
733,832,3 Huxley Circle,,Washington,District of Columbia,20430
734,833,3 Arrowood Plaza,,West Palm Beach,Florida,33405
735,834,120 Riverside Park,,Lakeland,Florida,33805
736,835,5790 Carberry Circle,,Phoenix,Arizona,85067
737,836,230 Hollow Ridge Park,,Atlanta,Georgia,30336
738,837,20260 Esker Junction,,Austin,Texas,78721
739,838,5 Cascade Avenue,,Anchorage,Alaska,99599
740,839,484 Oak Valley Pass,,Fresno,California,93726
741,840,242 Starling Alley,,Des Moines,Iowa,50315
742,841,087 American Ash Street,,Kansas City,Missouri,64101
743,842,52 Schurz Point,,Dayton,Ohio,45432
744,843,57 La Follette Terrace,,Bakersfield,California,93305
745,844,77 American Ash Drive,,College Station,Texas,77844
746,845,9336 Vahlen Terrace,,Kansas City,Missouri,64114
747,846,498 Laurel Way,,Charlottesville,Virginia,22903
748,847,50729 Dottie Court,,Albany,Georgia,31704
749,848,5114 Eagan Trail,57,Oklahoma City,Oklahoma,73124
750,849,99393 Cordelia Point,03875,Kissimmee,Florida,34745
751,850,70 Onsgard Road,,Detroit,Michigan,48258
752,851,994 Division Park,,Trenton,New Jersey,08695
753,852,474 Oak Valley Road,,El Paso,Texas,79984
754,853,41157 Ridge Oak Drive,,Denton,Texas,76210
755,854,676 Ridgeway Hill,5786,Dallas,Texas,75205
756,855,16 Caliangt Lane,,Akron,Ohio,44315
757,856,2940 Spaight Pass,,San Antonio,Texas,78250
758,857,0 Dayton Lane,,Omaha,Nebraska,68117
759,858,7803 Loeprich Hill,,High Point,North Carolina,27264
760,859,77 Ryan Alley,,Saint Louis,Missouri,63158
761,860,639 Weeping Birch Drive,,Louisville,Kentucky,40233
762,861,866 Summit Road,,Bakersfield,California,93399
763,862,4 Brown Park,,Staten Island,New York,10310
764,863,3 Caliangt Crossing,,Norfolk,Virginia,23520
765,864,1 Logan Trail,,York,Pennsylvania,17405
766,865,806 Gina Avenue,,Rochester,Minnesota,55905
767,866,9 Talisman Parkway,,Chicago,Illinois,60686
768,867,4 Bobwhite Lane,,Houston,Texas,77035
769,868,7 Eastwood Way,2,Mount Vernon,New York,10557
770,869,5 Monterey Parkway,,El Paso,Texas,88514
771,870,78688 Scofield Point,,Brooklyn,New York,11236
772,871,93191 Paget Drive,,Palmdale,California,93591
773,872,48 Fairfield Alley,,Saint Louis,Missouri,63126
774,873,452 Southridge Terrace,,Lexington,Kentucky,40586
775,874,303 Washington Crossing,26,Dallas,Texas,75241
776,875,939 Thackeray Plaza,,Detroit,Michigan,48211
777,876,857 Anderson Crossing,,Punta Gorda,Florida,33982
778,877,3575 Mayer Trail,,Syracuse,New York,13205
779,878,58540 Hoepker Junction,,Honolulu,Hawaii,96840
780,879,55 Hooker Terrace,,Seattle,Washington,98166
781,880,07287 Surrey Lane,90,Denver,Colorado,80235
782,881,869 Lillian Plaza,,Charleston,South Carolina,29424
783,882,931 Mallard Place,6,Frankfort,Kentucky,40618
784,883,3 6th Place,,Memphis,Tennessee,38114
785,884,113 Gale Junction,,Amarillo,Texas,79118
786,885,72566 Huxley Road,,Columbus,Ohio,43240
787,886,18253 Fisk Junction,,Long Beach,California,90831
788,887,10398 Carberry Road,20149,Brockton,Massachusetts,02405
789,888,4830 Orin Park,,Muncie,Indiana,47306
790,889,85881 Packers Pass,,Miami,Florida,33158
791,890,01 Packers Alley,,Warren,Michigan,48092
792,891,6 Charing Cross Terrace,,Columbia,South Carolina,29220
793,892,242 Onsgard Road,,Fresno,California,93773
794,893,0621 Annamark Circle,,Birmingham,Alabama,35295
795,894,3135 Grim Park,,Miami,Florida,33111
796,895,3 Del Sol Court,,Charlotte,North Carolina,28242
797,896,05084 Ridgeview Trail,,Amarillo,Texas,79182
798,897,63 Esker Junction,5,Chicago,Illinois,60681
799,898,70030 Dunning Drive,,Atlanta,Georgia,31119
800,899,68 Northridge Circle,,Flint,Michigan,48505
801,900,2 Pearson Trail,,Arlington,Virginia,22244
802,901,39845 Canary Lane,,Dallas,Texas,75236
803,902,54156 Lunder Terrace,,Miami,Florida,33129
804,903,1786 Cordelia Court,53,Spring,Texas,77386
805,904,88913 Anniversary Street,,Minneapolis,Minnesota,55407
806,905,273 Nancy Way,86,Mobile,Alabama,36670
807,906,0124 Maple Wood Road,,Reno,Nevada,89595
808,907,827 Fairfield Hill,,Rochester,New York,14639
809,908,7667 Forster Alley,,Kent,Washington,98042
810,909,5 Farragut Alley,80068,Fargo,North Dakota,58122
811,910,7998 Anniversary Drive,,Albany,Georgia,31704
812,911,5 Sachs Avenue,,Dayton,Ohio,45490
813,912,8458 Moland Point,,Las Vegas,Nevada,89193
814,913,6 Onsgard Junction,,Clearwater,Florida,34615
815,914,34461 Nobel Plaza,,Reston,Virginia,22096
816,915,2119 Hayes Parkway,,Olympia,Washington,98516
817,916,851 Holmberg Court,,Gastonia,North Carolina,28055
818,917,1478 East Lane,,Flint,Michigan,48555
819,918,0 Springs Circle,,Rochester,New York,14604
820,919,30 Moland Circle,,Fort Pierce,Florida,34981
821,920,669 Fair Oaks Plaza,824,Houston,Texas,77065
822,921,42 Hanson Point,,White Plains,New York,10633
823,922,23899 Superior Place,,Long Beach,California,90840
824,923,50 Mayfield Pass,,Raleigh,North Carolina,27621
825,924,6788 Bultman Center,,Tuscaloosa,Alabama,35487
826,925,9210 Pankratz Court,,Falls Church,Virginia,22047
827,926,6 Dovetail Drive,,Lake Worth,Florida,33467
828,927,7204 Service Avenue,,New York City,New York,10009
829,928,074 Lotheville Court,,Miami,Florida,33261
830,929,9 Warrior Place,,New York City,New York,10099
831,930,06529 Bunting Junction,,Reading,Pennsylvania,19610
832,931,43236 Memorial Terrace,,Sacramento,California,95865
833,932,625 Lakeland Place,,Baltimore,Maryland,21216
834,933,58922 Northwestern Trail,,Oakland,California,94616
835,934,89 Stoughton Trail,,Tuscaloosa,Alabama,35405
836,935,809 Steensland Circle,,Oklahoma City,Oklahoma,73129
837,936,22151 Vidon Circle,,Lima,Ohio,45807
838,937,491 Meadow Vale Crossing,,Washington,District of Columbia,20370
839,938,6711 Pawling Plaza,,Buffalo,New York,14210
840,939,7 Kingsford Center,,Denton,Texas,76205
841,940,011 Schurz Terrace,,Wichita,Kansas,67260
842,941,62 Morningstar Court,,Young America,Minnesota,55551
843,942,95202 Lake View Lane,7628,New York City,New York,10105
844,943,9 Eagle Crest Junction,3229,Portland,Oregon,97255
845,944,3862 Onsgard Junction,,Memphis,Tennessee,38181
846,945,4 Autumn Leaf Center,,Honolulu,Hawaii,96815
847,946,094 Hayes Point,,Washington,District of Columbia,20319
848,947,8764 Hooker Crossing,,Sacramento,California,94245
849,948,51768 Kensington Court,,Southfield,Michigan,48076
850,949,120 Loomis Trail,,Wichita,Kansas,67210
851,950,04862 Ruskin Circle,,Washington,District of Columbia,20041
852,951,39 Michigan Avenue,,Evansville,Indiana,47705
853,952,3 Sherman Parkway,,Cincinnati,Ohio,45999
854,953,15704 Marcy Street,,Montgomery,Alabama,36125
855,954,24 Valley Edge Point,,Salt Lake City,Utah,84135
856,955,05 Clarendon Lane,,Clearwater,Florida,34629
857,956,778 Nova Center,,New York City,New York,10045
858,957,71 Randy Crossing,46,Albany,New York,12237
859,958,32383 Canary Avenue,,Washington,District of Columbia,20591
860,959,78365 Brickson Park Lane,,Saint Paul,Minnesota,55108
861,960,76 Oak Valley Center,,Knoxville,Tennessee,37924
862,961,07104 Waywood Circle,,Decatur,Georgia,30033
863,962,686 Larry Plaza,,Cincinnati,Ohio,45243
864,963,45886 Elka Hill,0879,Sacramento,California,95894
865,964,0804 Jenifer Hill,,Chicago,Illinois,60681
866,965,9 Center Circle,,Punta Gorda,Florida,33982
867,966,3542 Butterfield Center,86728,Charleston,West Virginia,25313
868,967,02 Dawn Crossing,,Philadelphia,Pennsylvania,19196
869,968,9 Mariners Cove Parkway,,Wilmington,Delaware,19810
870,969,20202 Drewry Hill,,Annapolis,Maryland,21405
871,970,363 Talmadge Trail,,Detroit,Michigan,48211
872,971,10 Sheridan Trail,,Shreveport,Louisiana,71137
873,972,57770 Elmside Hill,62215,Waco,Texas,76796
874,973,9857 Sutherland Way,,Albuquerque,New Mexico,87195
875,974,9661 2nd Terrace,,Beaumont,Texas,77713
876,975,29011 Elmside Avenue,7153,San Diego,California,92191
877,976,4637 Golf Trail,,San Francisco,California,94142
878,977,033 Sachs Junction,,Memphis,Tennessee,38126
879,978,3 Waxwing Crossing,,Denver,Colorado,80223
880,979,6 Forest Street,,Atlanta,Georgia,30386
881,980,79 Sugar Hill,,Albany,New York,12210
882,981,5 Sycamore Pass,,El Paso,Texas,79940
883,982,25 1st Trail,,Jamaica,New York,11407
884,983,896 Melody Point,,Inglewood,California,90398
885,984,4 Rigney Pass,,Kingsport,Tennessee,37665
886,985,32 2nd Avenue,,Brooklyn,New York,11215
887,986,9779 David Avenue,,Sacramento,California,95838
888,987,07 Meadow Vale Trail,,Philadelphia,Pennsylvania,19131
889,988,06 Vernon Pass,,Odessa,Texas,79764
890,989,30 Comanche Center,,Pittsburgh,Pennsylvania,15240
891,990,05 Barnett Hill,,Saginaw,Michigan,48604
892,991,5 Eastwood Avenue,,San Antonio,Texas,78260
893,992,01639 Basil Alley,,Arlington,Virginia,22205
894,993,7763 Monica Circle,,Columbus,Ohio,43210
895,994,4398 New Castle Alley,,Austin,Texas,78778
896,995,547 Sauthoff Street,0782,New York City,New York,10009
897,996,513 Charing Cross Pass,72,Montgomery,Alabama,36134
898,997,5 Hanover Center,,Chicago,Illinois,60604
899,998,2 Bunker Hill Street,,Tacoma,Washington,98442
900,999,233 Southridge Circle,,Saint Augustine,Florida,32092
901,1000,42 Jana Point,,Pomona,California,91797
902,1001,2 2nd Center,,Spokane,Washington,99252
903,1002,3 Florence Point,,Tampa,Florida,33625
904,1003,0 East Park,,Washington,District of Columbia,20238
905,1004,27 Scoville Drive,,Philadelphia,Pennsylvania,19104
906,1005,9 Crescent Oaks Center,,Abilene,Texas,79605
907,1006,0975 Goodland Parkway,,Littleton,Colorado,80127
908,1007,347 Lakewood Circle,,Washington,District of Columbia,20575
909,1008,9366 Michigan Drive,,Minneapolis,Minnesota,55480
910,1009,10015 Hanover Junction,,Abilene,Texas,79699
911,1010,85 Glacier Hill Trail,,Henderson,Nevada,89012
912,1011,158 Arrowood Road,,Fort Worth,Texas,76147
913,1012,1 Valley Edge Place,,Santa Clara,California,95054
914,1013,4 Village Place,,Houston,Texas,77095
915,1014,08 Bluejay Junction,,Philadelphia,Pennsylvania,19196
916,1015,47 Parkside Alley,46,Dallas,Texas,75226
917,1016,0 Dawn Street,,Rochester,New York,14614
918,1017,1 Fremont Avenue,,Vancouver,Washington,98682
919,1018,13 Forest Pass,,Midland,Texas,79705
920,1019,35229 Nevada Place,,Washington,District of Columbia,20392
921,1020,964 Lunder Crossing,,Denver,Colorado,80299
922,1021,90005 Granby Lane,,Jackson,Mississippi,39236
923,1022,5812 7th Alley,,Hialeah,Florida,33018
924,1023,50 Fuller Street,,Mobile,Alabama,36670
925,1024,30 Sunfield Drive,,Minneapolis,Minnesota,55441
926,1025,50179 Mcbride Terrace,,Washington,District of Columbia,20205
927,1026,7 Briar Crest Junction,,Denver,Colorado,80204
928,1027,63 Ryan Junction,,Minneapolis,Minnesota,55407
929,1028,38 Crescent Oaks Drive,,Sioux City,Iowa,51105
930,1029,7 Pearson Way,,Grand Junction,Colorado,81505
931,1030,0939 Melvin Court,,Maple Plain,Minnesota,55572
932,1031,4367 Fordem Alley,,San Francisco,California,94121
933,1032,3612 Ilene Drive,,Minneapolis,Minnesota,55436
934,1033,18965 Stuart Drive,7455,Salt Lake City,Utah,84145
935,1034,390 Petterle Pass,,Houston,Texas,77250
936,1035,2 Lukken Way,,White Plains,New York,10606
937,1036,486 Fremont Hill,,Seattle,Washington,98195
938,1037,8065 Merrick Crossing,78,Jamaica,New York,11470
939,1038,40211 Scofield Center,,Jackson,Mississippi,39216
940,1039,75060 Messerschmidt Junction,,Springfield,Illinois,62705
941,1040,52 Butternut Terrace,,Atlanta,Georgia,30340
942,1041,9 Hovde Court,9,New York City,New York,10039
943,1042,23 Grover Lane,,San Jose,California,95118
944,1043,062 Becker Road,9,Madison,Wisconsin,53726
945,1044,35 Anniversary Point,14,Houston,Texas,77250
946,1045,3531 Grasskamp Drive,,Buffalo,New York,14205
947,1046,265 Weeping Birch Court,,Houston,Texas,77015
948,1047,259 Oak Center,,Des Moines,Iowa,50310
949,1048,64 Kedzie Road,,Green Bay,Wisconsin,54313
950,1049,9355 Dryden Trail,,Winston Salem,North Carolina,27110
951,1050,28302 Northridge Point,,Portland,Oregon,97221
952,1051,3 Birchwood Park,,Sarasota,Florida,34238
953,1052,202 Saint Paul Drive,4475,Atlanta,Georgia,30301
954,1053,09827 Bultman Pass,,Minneapolis,Minnesota,55412
955,1054,8 Oriole Avenue,,Boca Raton,Florida,33432
956,1055,2 American Ash Point,,Birmingham,Alabama,35290
957,1056,80 David Way,,Albuquerque,New Mexico,87180
958,1057,14 Sutteridge Road,,Kansas City,Missouri,64101
959,1058,42302 Pierstorff Place,02848,New York City,New York,10034
960,1059,71 Mockingbird Way,,Canton,Ohio,44720
961,1060,8030 Starling Plaza,,Miami,Florida,33158
962,1061,732 Dunning Hill,,Pittsburgh,Pennsylvania,15255
963,1062,6481 Merrick Alley,,Salt Lake City,Utah,84120
964,1063,07132 Hovde Point,,Santa Barbara,California,93150
965,1064,16991 Huxley Crossing,,Toledo,Ohio,43610
966,1065,66253 Ruskin Street,,Tuscaloosa,Alabama,35487
967,1066,7833 Florence Park,,Indianapolis,Indiana,46207
968,1067,31 American Ash Drive,,Orlando,Florida,32835
969,1068,3282 Delaware Plaza,,Brooklyn,New York,11254
970,1069,1174 Dryden Pass,,Minneapolis,Minnesota,55412
971,1070,284 Carioca Way,,Miami,Florida,33283
972,1071,766 Elka Lane,,Hattiesburg,Mississippi,39404
973,1072,1357 Fulton Center,,White Plains,New York,10633
974,1073,837 Anhalt Pass,,Brooklyn,New York,11225
975,1074,6 Beilfuss Circle,,Louisville,Kentucky,40205
976,1075,0 Jenifer Street,2800,Mesa,Arizona,85205
977,1076,5 Texas Court,,New York City,New York,10150
978,1077,5 Village Green Drive,,Gaithersburg,Maryland,20883
979,1078,50 Dryden Parkway,,Charleston,South Carolina,29424
980,1079,8234 Garrison Avenue,,Washington,District of Columbia,20099
981,1080,1547 Buell Court,,San Diego,California,92137
982,1081,5 Thackeray Trail,,San Jose,California,95160
983,1082,2 Petterle Drive,,San Francisco,California,94147
984,1083,8 Scofield Crossing,9383,Boston,Massachusetts,02119
985,1084,60 Mandrake Court,,Bakersfield,California,93386
986,1085,72855 Division Pass,,Ashburn,Virginia,22093
987,1086,478 Troy Lane,,Houston,Texas,77095
988,1087,31040 Meadow Valley Street,,Baton Rouge,Louisiana,70883
989,1088,025 Thompson Pass,,San Jose,California,95128
990,1089,49 Lighthouse Bay Crossing,,Racine,Wisconsin,53405
991,1090,17 Montana Lane,,Youngstown,Ohio,44555
992,1091,8 Loftsgordon Avenue,,Bethesda,Maryland,20816
993,1092,58775 Forest Run Alley,,Montgomery,Alabama,36134
994,1093,9397 Transport Trail,,Boise,Idaho,83705
995,1094,9 La Follette Park,,Roanoke,Virginia,24034
996,1095,7747 Bartelt Parkway,,New York City,New York,10270
997,1096,5034 Lien Park,,Toledo,Ohio,43635
998,1097,70489 Merchant Circle,,Spokane,Washington,99252
999,1098,64337 Graedel Lane,,Annapolis,Maryland,21405
1000,1099,636 Oak Street,571,Denver,Colorado,80235
